NORAD_CAT_ID,OBJECT_NAME,OBJECT_TYPE,EPOCH,MEAN_MOTION,ECCENTRICITY,INCLINATION,RA_OF_ASC_NODE,ARG_OF_PERICENTER,MEAN_ANOMALY,BSTAR,MEAN_MOTION_DOT,MEAN_MOTION_DDOT,TLE_LINE0,TLE_LINE1,TLE_LINE2,SEMIMAJOR_AXIS,PERIOD,APOGEE,PERIGEE,DECAYED
53577.0,STARLINK-4553,PAYLOAD,2024-01-05 10:30:26,15.0881885,0.0001284,53.2187,19.4045,102.1991,257.9145,-0.00013255,-2.396e-05,0.0,0 STARLINK-4553,1 53577U 22101BC  24005.43780179 -.00002396  00000-0 -13255-3 0  9994,2 53577  53.2187  19.4045 0001284 102.1991 257.9145 15.08818850 76545,6917.945,95.439,540.698,538.922,0.0
53577.0,STARLINK-4553,PAYLOAD,2024-01-06 03:59:39,15.08839409,0.000132,53.2186,16.1344,92.8265,267.2878,-1.1945e-05,-4.78e-06,0.0,0 STARLINK-4553,1 53577U 22101BC  24006.16643057 -.00000478  00000-0 -11945-4 0  9992,2 53577  53.2186  16.1344 0001320  92.8265 267.2878 15.08839409 76652,6917.882,95.438,540.66,538.834,0.0
53577.0,STARLINK-4553,PAYLOAD,2024-01-06 07:10:25,15.088414,0.000128,53.2181,15.5405,82.2066,277.9071,3.1345e-05,2.11e-06,0.0,0 STARLINK-4553,1 53577U 22101BC  24006.29890909  .00000211  00000-0  31345-4 0  9995,2 53577  53.2181  15.5405 0001280  82.2066 277.9071 15.08841400 77495,6917.876,95.437,540.627,538.856,0.0
53577.0,STARLINK-4553,PAYLOAD,2024-01-07 03:50:25,15.08841287,0.0001223,53.2181,11.6743,92.0538,268.0594,0.00031828,4.781e-05,0.0,0 STARLINK-4553,1 53577U 22101BC  24007.16002014  .00004781  00000-0  31828-3 0  9995,2 53577  53.2181  11.6743 0001223  92.0538 268.0594 15.08841287 76805,6917.876,95.437,540.588,538.895,0.0
53577.0,STARLINK-4553,PAYLOAD,2024-01-07 07:01:11,15.08847099,0.0001255,53.2179,11.0795,91.0145,269.0991,0.00037859,5.744e-05,0.0,0 STARLINK-4553,1 53577U 22101BC  24007.29249841  .00005744  00000-0  37859-3 0  9990,2 53577  53.2179  11.0795 0001255  91.0145 269.0991 15.08847099 77643,6917.859,95.437,540.592,538.855,0.0
53577.0,STARLINK-4553,PAYLOAD,2024-01-08 03:41:13,15.08841815,0.0001421,53.2181,7.2137,93.0599,267.0556,6.6022e-05,7.63e-06,0.0,0 STARLINK-4553,1 53577U 22101BC  24008.15362983  .00000763  00000-0  66022-4 0  9990,2 53577  53.2181   7.2137 0001421  93.0599 267.0556 15.08841815 76951,6917.875,95.437,540.723,538.757,0.0
53577.0,STARLINK-4553,PAYLOAD,2024-01-08 10:02:45,15.08847492,0.0001474,53.2178,6.0239,89.3073,270.8088,4.252e-05,3.89e-06,0.0,0 STARLINK-4553,1 53577U 22101BC  24008.41858271  .00000389  00000-0  42520-4 0  9990,2 53577  53.2178   6.0239 0001474  89.3073 270.8088 15.08847492 76993,6917.857,95.437,540.742,538.703,0.0
53577.0,STARLINK-4553,PAYLOAD,2024-01-09 08:18:09,15.08846607,0.0001544,53.2185,1.8582,101.8413,258.2752,3.2502e-05,2.29e-06,0.0,0 STARLINK-4553,1 53577U 22101BC  24009.34594357  .00000229  00000-0  32502-4 0  9997,2 53577  53.2185   1.8582 0001544 101.8413 258.2752 15.08846607 77953,6917.86,95.437,540.793,538.657,0.0
53577.0,STARLINK-4553,PAYLOAD,2024-01-10 08:08:56,15.08849083,0.0001706,53.2173,357.3991,93.5827,266.536,0.0002381,3.504e-05,0.0,0 STARLINK-4553,1 53577U 22101BC  24010.33954037  .00003504  00000-0  23810-3 0  9993,2 53577  53.2173 357.3991 0001706  93.5827 266.5360 15.08849083 78105,6917.853,95.437,540.898,538.537,0.0
53577.0,STARLINK-4553,PAYLOAD,2024-01-11 03:13:33,15.08846166,0.000178,53.2176,353.828,120.6895,239.4273,0.00014648,2.044e-05,0.0,0 STARLINK-4553,1 53577U 22101BC  24011.13441987  .00002044  00000-0  14648-3 0  9994,2 53577  53.2176 353.8280 0001780 120.6895 239.4273 15.08846166 77402,6917.862,95.437,540.958,538.495,0.0
53577.0,STARLINK-4553,PAYLOAD,2024-01-11 06:24:20,15.08852141,0.0001642,53.2172,353.2359,90.9877,269.1303,0.00025771,3.817e-05,0.0,0 STARLINK-4553,1 53577U 22101BC  24011.26689934  .00003817  00000-0  25771-3 0  9992,2 53577  53.2172 353.2359 0001642  90.9877 269.1303 15.08852141 78242,6917.843,95.437,540.844,538.572,0.0
53577.0,STARLINK-4553,PAYLOAD,2024-01-11 22:18:11,15.0883938,0.0001699,53.2189,350.265,94.4935,265.6251,3.3767e-05,2.49e-06,0.0,0 STARLINK-4553,1 53577U 22101BC  24011.92930490  .00000249  00000-0  33767-4 0  9992,2 53577  53.2189 350.2650 0001699  94.4935 265.6251 15.08839380 78341,6917.882,95.438,540.923,538.572,0.0
53577.0,STARLINK-4553,PAYLOAD,2024-01-12 03:04:21,15.08839314,0.0001766,53.2173,349.3714,94.3273,265.792,6.3717e-05,7.26e-06,0.0,0 STARLINK-4553,1 53577U 22101BC  24012.12802561  .00000726  00000-0  63717-4 0  9990,2 53577  53.2173 349.3714 0001766  94.3273 265.7920 15.08839314 77556,6917.882,95.438,540.969,538.526,0.0
53577.0,STARLINK-4553,PAYLOAD,2024-01-12 07:50:30,15.08845995,0.0001773,53.2187,348.4782,95.6009,264.5186,0.00020574,2.988e-05,0.0,0 STARLINK-4553,1 53577U 22101BC  24012.32674365  .00002988  00000-0  20574-3 0  9996,2 53577  53.2187 348.4782 0001773  95.6009 264.5186 15.08845995 78403,6917.862,95.437,540.954,538.501,0.0
53577.0,STARLINK-4553,PAYLOAD,2024-01-13 07:41:17,15.08844324,0.0001932,53.2192,344.0128,93.4051,266.7162,0.0001966,2.843e-05,0.0,0 STARLINK-4553,1 53577U 22101BC  24013.32034616  .00002843  00000-0  19660-3 0  9990,2 53577  53.2192 344.0128 0001932  93.4051 266.7162 15.08844324 77733,6917.867,95.437,541.069,538.396,0.0
53577.0,STARLINK-4553,PAYLOAD,2024-01-14 04:21:18,15.08844603,0.0001969,53.2184,340.1532,102.2673,257.8539,0.000218,3.183e-05,0.0,0 STARLINK-4553,1 53577U 22101BC  24014.18146886  .00003183  00000-0  21800-3 0  9995,2 53577  53.2184 340.1532 0001969 102.2673 257.8539 15.08844603 77862,6917.866,95.437,541.093,538.369,0.0
53577.0,STARLINK-4553,PAYLOAD,2024-01-14 07:32:05,15.08848628,0.0001796,53.2177,339.5563,105.2767,254.8424,0.00030259,4.532e-05,0.0,0 STARLINK-4553,1 53577U 22101BC  24014.31394693  .00004532  00000-0  30259-3 0  9998,2 53577  53.2177 339.5563 0001796 105.2767 254.8424 15.08848628 78700,6917.854,95.437,540.961,538.477,0.0
53577.0,STARLINK-4553,PAYLOAD,2024-01-15 07:22:51,15.08850078,0.0001816,53.219,335.0925,106.8792,253.2399,0.00024099,3.55e-05,0.0,0 STARLINK-4553,1 53577U 22101BC  24015.30754481  .00003550  00000-0  24099-3 0  9997,2 53577  53.2190 335.0925 0001816 106.8792 253.2399 15.08850078 78038,6917.85,95.437,540.971,538.458,0.0
53577.0,STARLINK-4553,PAYLOAD,2024-01-16 07:13:38,15.08847135,0.0003116,53.2165,330.6273,139.8041,220.3182,2.5661e-05,1.2e-06,0.0,0 STARLINK-4553,1 53577U 22101BC  24016.30114294  .00000120  00000-0  25661-4 0  9997,2 53577  53.2165 330.6273 0003116 139.8041 220.3182 15.08847135 78186,6917.859,95.437,541.879,537.568,0.0
53577.0,STARLINK-4553,PAYLOAD,2024-01-16 19:56:44,15.08839133,0.0002026,53.2189,328.2578,106.35,253.7715,5.2511e-05,5.48e-06,0.0,0 STARLINK-4553,1 53577U 22101BC  24016.83106968  .00000548  00000-0  52511-4 0  9992,2 53577  53.2189 328.2578 0002026 106.3500 253.7715 15.08839133 78261,6917.883,95.438,541.15,538.346,0.0
53577.0,STARLINK-4553,PAYLOAD,2024-01-17 03:53:40,15.08842166,0.0001312,53.2175,326.7748,92.364,267.7503,-4.2564e-05,-9.65e-06,0.0,0 STARLINK-4553,1 53577U 22101BC  24017.16226897 -.00000965  00000-0 -42564-4 0  9995,2 53577  53.2175 326.7748 0001312  92.3640 267.7503 15.08842166 79131,6917.874,95.437,540.646,538.831,0.0
53577.0,STARLINK-4553,PAYLOAD,2024-01-18 03:44:27,15.08843466,0.0001517,53.2179,322.3166,87.595,272.5216,9.9224e-05,1.292e-05,0.0,0 STARLINK-4553,1 53577U 22101BC  24018.15587350  .00001292  00000-0  99224-4 0  9996,2 53577  53.2179 322.3166 0001517  87.5950 272.5216 15.08843466 78462,6917.87,95.437,540.784,538.685,0.0
53577.0,STARLINK-4553,PAYLOAD,2024-01-19 01:59:51,15.08842372,0.0001991,53.2183,318.153,61.8681,298.2512,-8.0605e-05,-1.571e-05,0.0,0 STARLINK-4553,1 53577U 22101BC  24019.08323852 -.00001571  00000-0 -80605-4 0  9999,2 53577  53.2183 318.1530 0001991  61.8681 298.2512 15.08842372 78602,6917.873,95.437,541.115,538.361,0.0
53577.0,STARLINK-4553,PAYLOAD,2024-01-19 05:10:37,15.08844719,0.0001275,53.2184,317.5497,96.6324,263.4813,0.00024736,3.652e-05,0.0,0 STARLINK-4553,1 53577U 22101BC  24019.21571578  .00003652  00000-0  24736-3 0  9996,2 53577  53.2184 317.5497 0001275  96.6324 263.4813 15.08844719 79441,6917.866,95.437,540.613,538.849,0.0
53577.0,STARLINK-4553,PAYLOAD,2024-01-19 19:29:06,15.08842734,0.0001682,53.2186,314.8736,118.2065,241.9097,4.8497e-05,4.84e-06,0.0,0 STARLINK-4553,1 53577U 22101BC  24019.81187522  .00000484  00000-0  48497-4 0  9995,2 53577  53.2186 314.8736 0001682 118.2065 241.9097 15.08842734 79534,6917.872,95.437,540.901,538.573,0.0
53577.0,STARLINK-4553,PAYLOAD,2024-01-20 01:50:38,15.08846186,0.0001456,53.2181,313.6929,75.1466,284.9687,0.00012258,1.664e-05,0.0,0 STARLINK-4553,1 53577U 22101BC  24020.07683553  .00001664  00000-0  12258-3 0  9996,2 53577  53.2181 313.6929 0001456  75.1466 284.9687 15.08846186 79576,6917.861,95.437,540.734,538.719,0.0
53577.0,STARLINK-4553,PAYLOAD,2024-01-20 19:19:53,15.08847967,0.0002534,53.218,310.4213,39.2159,320.9016,8.613e-05,1.083e-05,0.0,0 STARLINK-4553,1 53577U 22101BC  24020.80547927  .00001083  00000-0  86130-4 0  9997,2 53577  53.2180 310.4213 0002534  39.2159 320.9016 15.08847967 78860,6917.856,95.437,541.474,537.968,0.0
53577.0,STARLINK-4553,PAYLOAD,2024-01-20 22:30:39,15.08841879,0.0001316,53.2188,309.8201,77.7027,282.4113,3.2524e-05,2.3e-06,0.0,0 STARLINK-4553,1 53577U 22101BC  24020.93795946  .00000230  00000-0  32524-4 0  9998,2 53577  53.2188 309.8201 0001316  77.7027 282.4113 15.08841879 79705,6917.875,95.437,540.65,538.829,0.0
53577.0,STARLINK-4553,PAYLOAD,2024-01-21 04:52:12,15.08845487,0.0001307,53.2176,308.6296,92.6032,267.511,9.1145e-05,1.163e-05,0.0,0 STARLINK-4553,1 53577U 22101BC  24021.20291693  .00001163  00000-0  91145-4 0  9999,2 53577  53.2176 308.6296 0001307  92.6032 267.5110 15.08845487 79749,6917.864,95.437,540.633,538.824,0.0
53577.0,STARLINK-4553,PAYLOAD,2024-01-21 19:10:40,15.08838828,0.0001312,53.2174,305.9524,102.4346,257.6793,0.00014955,2.093e-05,0.0,0 STARLINK-4553,1 53577U 22101BC  24021.79908128  .00002093  00000-0  14955-3 0  9997,2 53577  53.2174 305.9524 0001312 102.4346 257.6793 15.08838828 79013,6917.884,95.438,540.657,538.841,0.0
